[{"OBJECT_NAME":"STARLINK-33981","OBJECT_ID":"2025-094AA","EPOCH":"2026-03-09T16:55:19.663680","MEAN_MOTION":14.98341865,"ECCENTRICITY":0.0002901,"INCLINATION":70.0026,"RA_OF_ASC_NODE":234.4853,"ARG_OF_PERICENTER":262.0511,"MEAN_ANOMALY":98.0319,"EPHEMERIS_TYPE":0,"CLASSIFICATION_TYPE":"U","NORAD_CAT_ID":63888,"ELEMENT_SET_NO":999,"REV_AT_EPOCH":4720,"BSTAR":0.00056996357,"MEAN_MOTION_DOT":6.716e-5,"MEAN_MOTION_DDOT":0},{"OBJECT_NAME":"RAPIDEYE 5","OBJECT_ID":"2008-040B","EPOCH":"2026-03-09T15:17:22.403904","MEAN_MOTION":15.02179038,"ECCENTRICITY":0.0014834,"INCLINATION":97.3944,"RA_OF_ASC_NODE":91.3825,"ARG_OF_PERICENTER":86.9831,"MEAN_ANOMALY":273.3091,"EPHEMERIS_TYPE":0,"CLASSIFICATION_TYPE":"U","NORAD_CAT_ID":33313,"ELEMENT_SET_NO":999,"REV_AT_EPOCH":95055,"BSTAR":0.00014028,"MEAN_MOTION_DOT":1.794e-5,"MEAN_MOTION_DDOT":0}]
